STARLINK-31888          
1 59788U 24093G   26068.46300174 -.00003387  00000+0 -11369-3 0  9997
2 59788  43.0024 209.9290 0001204 265.3673  94.7041 15.27559291102668
FLOCK 4G-5              
1 62663U 25009BG  26068.45638436  .00011278  00000+0  40688-3 0  9997
2 62663  97.4058 151.2478 0002094 314.5072  45.5996 15.28679529 63699
